{
  "type": "FeatureCollection",
  "features": [
    {
      "type": "Feature",
      "properties": {
        "norad_id": 66843,
        "name": "STARLINK-35997",
        "group": "last-30-days",
        "lat": -9.444641606159854,
        "lon": 178.68815468831212,
        "alt_km": 399.7032270685686,
        "timestamp": "2025-12-18T15:47:09.960788+00:00",
        "meta_object_name": "STARLINK-35997",
        "meta_object_id": "2025-280Y",
        "meta_epoch": "2025-12-18T06:00:02.999808",
        "meta_mean_motion": 15.58737362,
        "meta_eccentricity": 0.00031578,
        "meta_inclination": 69.9987,
        "meta_ra_of_asc_node": 183.2873,
        "meta_arg_of_pericenter": 269.7101,
        "meta_mean_anomaly": 314.4321,
        "meta_ephemeris_type": 0,
        "meta_classification_type": "U",
        "meta_norad_cat_id": 66843,
        "meta_element_set_no": 999,
        "meta_rev_at_epoch": 378,
        "meta_bstar": -0.029384921,
        "meta_mean_motion_dot": -0.0199667,
        "meta_mean_motion_ddot": 0,
        "tle_line1": "1 66843U 25280Y   25352.25003472 -.01996670  00000+0 -29385-1 0  9991",
        "tle_line2": "2 66843  69.9987 183.2873 0003157 269.7101 314.4321 15.58737362  3784"
      },
      "geometry": {
        "type": "Point",
        "coordinates": [
          178.68815468831212,
          -9.444641606159854
        ]
      }
    },
    {
      "type": "Feature",
      "properties": {
        "norad_id": 66844,
        "name": "STARLINK-36073",
        "group": "last-30-days",
        "lat": -11.241367054190201,
        "lon": 178.01326444050005,
        "alt_km": 399.7576400606731,
        "timestamp": "2025-12-18T15:47:09.960798+00:00",
        "meta_object_name": "STARLINK-36073",
        "meta_object_id": "2025-280Z",
        "meta_epoch": "2025-12-18T06:00:02.999808",
        "meta_mean_motion": 15.58735348,
        "meta_eccentricity": 0.0003163,
        "meta_inclination": 69.9985,
        "meta_ra_of_asc_node": 183.2903,
        "meta_arg_of_pericenter": 271.6869,
        "meta_mean_anomaly": 310.5407,
        "meta_ephemeris_type": 0,
        "meta_classification_type": "U",
        "meta_norad_cat_id": 66844,
        "meta_element_set_no": 999,
        "meta_rev_at_epoch": 378,
        "meta_bstar": -0.029363457,
        "meta_mean_motion_dot": -0.01995261,
        "meta_mean_motion_ddot": 0,
        "tle_line1": "1 66844U 25280Z   25352.25003472 -.01995261  00000+0 -29363-1 0  9993",
        "tle_line2": "2 66844  69.9985 183.2903 0003163 271.6869 310.5407 15.58735348  3781"
      },
      "geometry": {
        "type": "Point",
        "coordinates": [
          178.01326444050005,
          -11.241367054190201
        ]
      }
    },
    {
      "type": "Feature",
      "properties": {
        "norad_id": 66845,
        "name": "STARLINK-36068",
        "group": "last-30-days",
        "lat": -4.04718636234059,
        "lon": -179.32136312773522,
        "alt_km": 399.1970467068704,
        "timestamp": "2025-12-18T15:47:09.960810+00:00",
        "meta_object_name": "STARLINK-36068",
        "meta_object_id": "2025-280AA",
        "meta_epoch": "2025-12-18T06:00:02.999808",
        "meta_mean_motion": 15.58737404,
        "meta_eccentricity": 0.00031951,
        "meta_inclination": 69.9995,
        "meta_ra_of_asc_node": 183.2806,
        "meta_arg_of_pericenter": 271.4744,
        "meta_mean_anomaly": 318.416,
        "meta_ephemeris_type": 0,
        "meta_classification_type": "U",
        "meta_norad_cat_id": 66845,
        "meta_element_set_no": 999,
        "meta_rev_at_epoch": 378,
        "meta_bstar": -0.029352169,
        "meta_mean_motion_dot": -0.01994752,
        "meta_mean_motion_ddot": 0,
        "tle_line1": "1 66845U 25280AA  25352.25003472 -.01994752  00000+0 -29352-1 0  9996",
        "tle_line2": "2 66845  69.9995 183.2806 0003195 271.4744 318.4160 15.58737404  3788"
      },
      "geometry": {
        "type": "Point",
        "coordinates": [
          -179.32136312773522,
          -4.04718636234059
        ]
      }
    },
    {
      "type": "Feature",
      "properties": {
        "norad_id": 66846,
        "name": "STARLINK-36055",
        "group": "last-30-days",
        "lat": -7.645952908620204,
        "lon": 179.35726589362451,
        "alt_km": 399.57426618049976,
        "timestamp": "2025-12-18T15:47:09.960821+00:00",
        "meta_object_name": "STARLINK-36055",
        "meta_object_id": "2025-280AB",
        "meta_epoch": "2025-12-18T06:00:02.999808",
        "meta_mean_motion": 15.58738165,
        "meta_eccentricity": 0.0003216,
        "meta_inclination": 69.999,
        "meta_ra_of_asc_node": 183.2853,
        "meta_arg_of_pericenter": 269.5081,
        "meta_mean_anomaly": 316.5513,
        "meta_ephemeris_type": 0,
        "meta_classification_type": "U",
        "meta_norad_cat_id": 66846,
        "meta_element_set_no": 999,
        "meta_rev_at_epoch": 378,
        "meta_bstar": -0.029423595,
        "meta_mean_motion_dot": -0.01999079,
        "meta_mean_motion_ddot": 0,
        "tle_line1": "1 66846U 25280AB  25352.25003472 -.01999079  00000+0 -29424-1 0  9994",
        "tle_line2": "2 66846  69.9990 183.2853 0003216 269.5081 316.5513 15.58738165  3788"
      },
      "geometry": {
        "type": "Point",
        "coordinates": [
          179.35726589362451,
          -7.645952908620204
        ]
      }
    },
    {
      "type": "Feature",
      "properties": {
        "norad_id": 66847,
        "name": "STARLINK-36061",
        "group": "last-30-days",
        "lat": -5.846976777075892,
        "lon": -179.97943796499675,
        "alt_km": 399.4262189326264,
        "timestamp": "2025-12-18T15:47:09.960831+00:00",
        "meta_object_name": "STARLINK-36061",
        "meta_object_id": "2025-280AC",
        "meta_epoch": "2025-12-18T06:00:02.999808",
        "meta_mean_motion": 15.58723331,
        "meta_eccentricity": 0.00032543,
        "meta_inclination": 69.9993,
        "meta_ra_of_asc_node": 183.2834,
        "meta_arg_of_pericenter": 269.9572,
        "meta_mean_anomaly": 318.0323,
        "meta_ephemeris_type": 0,
        "meta_classification_type": "U",
        "meta_norad_cat_id": 66847,
        "meta_element_set_no": 999,
        "meta_rev_at_epoch": 373,
        "meta_bstar": -0.029266878,
        "meta_mean_motion_dot": -0.01988781,
        "meta_mean_motion_ddot": 0,
        "tle_line1": "1 66847U 25280AC  25352.25003472 -.01988781  00000+0 -29267-1 0  9998",
        "tle_line2": "2 66847  69.9993 183.2834 0003254 269.9572 318.0323 15.58723331  3732"
      },
      "geometry": {
        "type": "Point",
        "coordinates": [
          -179.97943796499675,
          -5.846976777075892
        ]
      }
    },
    {
      "type": "Feature",
      "properties": {
        "norad_id": 66848,
        "name": "STARLINK-36091",
        "group": "last-30-days",
        "lat": 42.88464673452106,
        "lon": 171.3672296803501,
        "alt_km": 337.0084658989572,
        "timestamp": "2025-12-18T15:47:09.960841+00:00",
        "meta_object_name": "STARLINK-36091",
        "meta_object_id": "2025-281A",
        "meta_epoch": "2025-12-18T06:00:02.999808",
        "meta_mean_motion": 15.76699098,
        "meta_eccentricity": 0.00014741,
        "meta_inclination": 43.001,
        "meta_ra_of_asc_node": 88.5266,
        "meta_arg_of_pericenter": 263.0711,
        "meta_mean_anomaly": 27.1661,
        "meta_ephemeris_type": 0,
        "meta_classification_type": "U",
        "meta_norad_cat_id": 66848,
        "meta_element_set_no": 999,
        "meta_rev_at_epoch": 228,
        "meta_bstar": -0.007801472,
        "meta_mean_motion_dot": -0.01149813,
        "meta_mean_motion_ddot": 0,
        "tle_line1": "1 66848U 25281A   25352.25003472 -.01149813  00000+0 -78015-2 0  9991",
        "tle_line2": "2 66848  43.0010  88.5266 0001474 263.0711  27.1661 15.76699098  2288"
      },
      "geometry": {
        "type": "Point",
        "coordinates": [
          171.3672296803501,
          42.88464673452106
        ]
      }
    },
    {
      "type": "Feature",
      "properties": {
        "norad_id": 66849,
        "name": "STARLINK-36102",
        "group": "last-30-days",
        "lat": 42.96248759012631,
        "lon": 174.0362107794187,
        "alt_km": 337.24394598618164,
        "timestamp": "2025-12-18T15:47:09.960851+00:00",
        "meta_object_name": "STARLINK-36102",
        "meta_object_id": "2025-281B",
        "meta_epoch": "2025-12-18T06:00:02.999808",
        "meta_mean_motion": 15.76656405,
        "meta_eccentricity": 0.00015232,
        "meta_inclination": 43.0009,
        "meta_ra_of_asc_node": 88.5209,
        "meta_arg_of_pericenter": 260.7802,
        "meta_mean_anomaly": 31.5029,
        "meta_ephemeris_type": 0,
        "meta_classification_type": "U",
        "meta_norad_cat_id": 66849,
        "meta_element_set_no": 999,
        "meta_rev_at_epoch": 228,
        "meta_bstar": -0.0080706148,
        "meta_mean_motion_dot": -0.01183068,
        "meta_mean_motion_ddot": 0,
        "tle_line1": "1 66849U 25281B   25352.25003472 -.01183068  00000+0 -80706-2 0  9992",
        "tle_line2": "2 66849  43.0009  88.5209 0001523 260.7802  31.5029 15.76656405  2286"
      },
      "geometry": {
        "type": "Point",
        "coordinates": [
          174.0362107794187,
          42.96248759012631
        ]
      }
    }
  ]
}